{
  "norad_id": 58154,
  "name": "STARLINK-30797",
  "history": [
    {
      "epoch": "2026-03-28T19:49:56.595936Z",
      "apogee_km": 476.1115622724483,
      "perigee_km": 474.3869761516635,
      "latitude_deg": 3.2184838657380456e-05,
      "longitude_deg": 7.164884457785262,
      "height_km": 476.20377147089926,
      "semi_major_axis_km": 6853.386269212056,
      "eccentricity": 0.00012582,
      "inclination_deg": 53.16,
      "raan_deg": 130.8919,
      "arg_perigee_deg": 93.7514,
      "mean_anomaly_deg": 266.3631,
      "mean_motion_rev_day": 15.30188546
    },
    {
      "epoch": "2026-03-29T02:06:09.345888Z",
      "apogee_km": 476.1431388317242,
      "perigee_km": 474.33110671366376,
      "latitude_deg": -2.4590777179952072e-06,
      "longitude_deg": -88.35957448208644,
      "height_km": 476.1804812576481,
      "semi_major_axis_km": 6853.374122772694,
      "eccentricity": 0.0001322,
      "inclination_deg": 53.1601,
      "raan_deg": 129.6781,
      "arg_perigee_deg": 92.8688,
      "mean_anomaly_deg": 267.2464,
      "mean_motion_rev_day": 15.30192614
    },
    {
      "epoch": "2026-03-30T06:19:06.838176Z",
      "apogee_km": 475.97809610871354,
      "perigee_km": 474.5002340724741,
      "latitude_deg": 2.060065518290829e-05,
      "longitude_deg": -158.21839644874623,
      "height_km": 476.20593979973347,
      "semi_major_axis_km": 6853.3761650905935,
      "eccentricity": 0.00010782,
      "inclination_deg": 53.1592,
      "raan_deg": 124.2176,
      "arg_perigee_deg": 95.3211,
      "mean_anomaly_deg": 264.7913,
      "mean_motion_rev_day": 15.3019193
    },
    {
      "epoch": "2026-03-30T09:27:13.277952Z",
      "apogee_km": 476.0852001986559,
      "perigee_km": 474.3883048575299,
      "latitude_deg": 3.4691189855028214e-05,
      "longitude_deg": 154.01882690803163,
      "height_km": 476.1462971085983,
      "semi_major_axis_km": 6853.373752528093,
      "eccentricity": 0.0001238,
      "inclination_deg": 53.1598,
      "raan_deg": 123.6104,
      "arg_perigee_deg": 90.7736,
      "mean_anomaly_deg": 269.3407,
      "mean_motion_rev_day": 15.30192738
    },
    {
      "epoch": "2026-03-31T18:22:20.602272Z",
      "apogee_km": 475.96921805724287,
      "perigee_km": 474.5437122164931,
      "latitude_deg": 3.182647781065155e-05,
      "longitude_deg": 12.515885528363157,
      "height_km": 476.10608492416856,
      "semi_major_axis_km": 6853.393465136867,
      "eccentricity": 0.000104,
      "inclination_deg": 53.1606,
      "raan_deg": 117.2399,
      "arg_perigee_deg": 86.072,
      "mean_anomaly_deg": 274.04,
      "mean_motion_rev_day": 15.30186136
    },
    {
      "epoch": "2026-04-01T11:36:55.521216Z",
      "apogee_km": 475.9506679986225,
      "perigee_km": 474.52516601588377,
      "latitude_deg": 5.68113353122234e-05,
      "longitude_deg": 109.82456326581253,
      "height_km": 475.9894495129321,
      "semi_major_axis_km": 6853.374917007252,
      "eccentricity": 0.000104,
      "inclination_deg": 53.1598,
      "raan_deg": 113.9022,
      "arg_perigee_deg": 78.1097,
      "mean_anomaly_deg": 282.0021,
      "mean_motion_rev_day": 15.30192348
    },
    {
      "epoch": "2026-04-02T07:59:36.771936Z",
      "apogee_km": 475.91703477649935,
      "perigee_km": 474.53841192875007,
      "latitude_deg": 2.104973693760927e-05,
      "longitude_deg": 159.3718596267527,
      "height_km": 475.88690244834055,
      "semi_major_axis_km": 6853.364723352624,
      "eccentricity": 0.00010058,
      "inclination_deg": 53.1594,
      "raan_deg": 109.9583,
      "arg_perigee_deg": 69.6889,
      "mean_anomaly_deg": 290.422,
      "mean_motion_rev_day": 15.30195762
    }
  ]
}